{
"type": "FeatureCollection",
"name": "stations",
"crs": { "type": "name", "properties": { "name": "urn:ogc:def:crs:OGC:1.3:CRS84" } },
"features": [
{ "type": "Feature", "properties": { "name": "34th Street" }, "geometry": { "type": "Point", "coordinates": [ -75.1914953, 39.9559238 ] } },
{ "type": "Feature", "properties": { "name": "30th Street" }, "geometry": { "type": "Point", "coordinates": [ -75.18347, 39.9550324 ] } },
{ "type": "Feature", "properties": { "name": "40th Street" }, "geometry": { "type": "Point", "coordinates": [ -75.2018813, 39.9572587 ] } }
]
}
